{"type":"Topology","arcs":[[[824,1797],[-84,23],[-30,-10],[-14,-1],[-66,12],[-60,96],[-187,85],[-90,35],[-38,21],[-14,21]],[[241,2079],[144,113],[247,403],[42,86],[52,90],[31,128],[309,231],[118,139],[227,50],[785,-451]],[[2196,2868],[-9,-6],[-13,-27],[-10,-8],[-127,6],[-30,10],[-9,7],[-12,2],[-13,-10],[3,-147],[6,-76],[24,-152],[-7,-70]],[[1999,2397],[-107,-20],[-40,-1],[-23,8],[-51,1],[-78,-23],[-3,-9],[14,-15],[0,-30],[-83,-93],[-8,-4],[-45,-8],[-9,6],[-2,12],[-14,-2],[-31,-12],[-65,-37],[-26,-31],[-46,-9],[-34,16],[-37,12],[-15,-13],[-7,-11],[1,-9],[-25,-29],[-59,-11],[-69,-19],[-25,-11],[-12,-14],[-35,-110],[-13,-81],[2,-23],[-20,-68],[-45,6],[-82,26]],[[907,1791],[-38,4],[-45,2]],[[2669,316],[-162,2],[14,37],[-109,5],[2,75],[-100,36],[-7,0],[-90,64],[-1,8],[-21,40],[-144,-19],[-18,11],[-170,59],[-32,67],[-6,7],[-24,1],[-18,-4],[-94,17],[-66,50],[-3,39],[-52,40],[38,33],[25,36],[32,61],[25,69],[30,66],[8,25],[-153,-24],[-17,17]],[[1556,1134],[1,53],[11,32]],[[1568,1219],[12,20],[24,27],[12,24],[10,32],[1,21],[47,10],[143,66],[-17,141],[-37,76],[77,17],[12,6],[-9,147],[-22,56],[5,11],[105,104],[34,20]],[[1965,1997],[20,18],[28,50]],[[2013,2065],[10,120],[19,44],[-43,168]],[[2196,2868],[232,-132],[256,103],[51,-84],[55,-16],[134,-26],[21,-128],[25,-194],[-27,-94],[1,-15],[-12,-54],[-37,-142],[4,-107],[8,-93],[20,-49],[107,-214],[-8,-632],[-21,0],[-10,4],[-25,36],[-7,24],[-16,10],[-61,-11],[-13,-4],[-12,-11],[-13,-3],[-20,3],[-15,10],[-8,10],[-12,3],[-27,-3],[-15,-6],[11,-20],[-45,-216],[10,-29],[-36,-131],[5,-11],[-4,-67],[-12,-109],[-12,-53],[5,-11],[1,-12],[-7,-43],[2,-35]],[[238,1114],[-14,-14],[-5,-24],[2,-6],[-3,-3],[-141,-77],[-26,-8],[-24,43],[-27,231],[2,298],[30,212],[59,116],[60,56],[77,131],[13,10]],[[824,1797],[83,-6]],[[2013,2065],[-32,-54],[-16,-14]],[[1568,1219],[-10,-27],[-2,-58]],[[1556,1134],[-65,32],[-23,4],[-109,-46],[-18,-48],[-104,6],[-43,-20],[-18,-18],[11,-38],[-45,-44],[-21,-8],[-41,26],[-63,51],[-44,24],[-16,3],[-112,-56],[-80,-54],[-46,-13],[-52,-28],[-15,-20],[-7,-21],[-26,-5],[-8,21],[19,20],[2,49],[-46,36],[-14,17],[-1,9],[9,3],[11,30],[-9,78],[-234,-38],[-11,20],[5,19],[-8,4],[-17,-1],[-9,-5],[-5,-11],[-9,-7],[-35,-3],[-21,12]],[[2669,316],[5,-119],[-3,-183],[5,-14],[-895,4],[-197,1],[-773,235],[-201,219],[-89,59],[-84,64],[-59,94],[34,57],[7,23],[0,66],[-7,28],[-69,41],[-5,9],[-8,2],[-27,23],[-40,25],[-1,10],[-11,7],[-21,96],[-2,42],[2,-1],[8,10]]],"transform":{"scale":[0.00044360580092287307,0.0004816812292859287],"translate":[30.7908,-27.3175]},"objects":{"gadm41_SWZ_1":{"type":"GeometryCollection","geometries":[{"arcs":[[0,1,2,3,4]],"type":"Polygon","properties":{"GID_1":"SWZ.1_1","GID_0":"SWZ","COUNTRY":"Swaziland","NAME_1":"Hhohho","VARNAME_1":"NA","NL_NAME_1":"NA","TYPE_1":"District","ENGTYPE_1":"District","CC_1":"NA","HASC_1":"SZ.HH","ISO_1":"SZ-HH","region":"Hhohho"}},{"arcs":[[5,6,7,8,9,-3,10]],"type":"Polygon","properties":{"GID_1":"SWZ.2_1","GID_0":"SWZ","COUNTRY":"Swaziland","NAME_1":"Lubombo","VARNAME_1":"NA","NL_NAME_1":"NA","TYPE_1":"District","ENGTYPE_1":"District","CC_1":"NA","HASC_1":"SZ.LU","ISO_1":"SZ-LU","region":"Lubombo"}},{"arcs":[[11,-1,12,-4,-10,13,-8,14,15]],"type":"Polygon","properties":{"GID_1":"SWZ.3_1","GID_0":"SWZ","COUNTRY":"Swaziland","NAME_1":"Manzini","VARNAME_1":"NA","NL_NAME_1":"NA","TYPE_1":"District","ENGTYPE_1":"District","CC_1":"NA","HASC_1":"SZ.MA","ISO_1":"SZ-MA","region":"Manzini"}},{"arcs":[[-16,-6,16]],"type":"Polygon","properties":{"GID_1":"SWZ.4_1","GID_0":"SWZ","COUNTRY":"Swaziland","NAME_1":"Shiselweni","VARNAME_1":"Shiselwini","NL_NAME_1":"NA","TYPE_1":"District","ENGTYPE_1":"District","CC_1":"NA","HASC_1":"SZ.SH","ISO_1":"SZ-SH","region":"Shiselweni"}}]}}}